TIBA-1                  
1 44800U 19080A   26171.18519036  .00000151  00000+0  00000+0 0  9999
2 44800   0.0566  20.3730 0001983  79.4675 270.7037  1.00272600 24087
INMARSAT GX5            
1 44801U 19080B   26171.25162351  .00000070  00000+0  00000+0 0  9992
2 44801   0.0356   7.3336 0002129  92.5916 270.1427  1.00269243  6816
JCSAT-18 (KACIFIC 1)    
1 44868U 19091A   26171.16294767 -.00000206  00000+0  00000+0 0  9996
2 44868   0.0405 196.2053 0000298 121.3970 159.4151  1.00270251 24043
ELEKTRO-L 3             
1 44903U 19095A   26171.19316374 -.00000101  00000+0  00000+0 0  9996
2 44903   0.2662  81.5711 0000979 352.9646 339.3637  1.00271435 23733
SHIJIAN-20 (SJ-20)      
1 44910U 19097A   26170.88300347  .00000129  00000+0  00000+0 0  9993
2 44910   4.9264  75.0320 0014814  52.9838 142.7662  1.00266576 23720
TJS-5                   
1 44978U 20002A   26170.87789322 -.00000348  00000+0  00000+0 0  9992
2 44978   0.0095 358.1976 0007544  49.6835 283.7542  1.00271192 23731
GSAT-30                 
1 45026U 20005A   26171.05199051 -.00000170  00000+0  00000+0 0  9998
2 45026   0.0245 260.9618 0003438 177.5621 291.4530  1.00273067 23532
EUTELSAT KONNECT        
1 45027U 20005B   26171.25084351  .00000044  00000+0  00000+0 0  9996
2 45027   0.0728  95.3527 0001386 136.6363 133.9835  1.00268380 24369
JCSAT-17                
1 45245U 20013A   26171.27642959 -.00000324  00000+0  00000+0 0  9995
2 45245   5.3920 356.9134 0002644  89.6499  57.4510  1.00270572 23262
GEO-KOMPSAT-2B          
1 45246U 20013B   26171.27478292 -.00000348  00000+0  00000+0 0  9999
2 45246   0.0484 200.4302 0000398  84.9522 210.2867  1.00272382 23310
BEIDOU-3 G2             
1 45344U 20017A   26171.12273016 -.00000147  00000+0  00000+0 0  9990
2 45344   2.8711  47.4075 0002078  33.3317 311.8622  1.00271684 23282
AEHF-6 (USA 298)        
1 45465U 20022B   26171.27668959 -.00000303  00000+0  00000+0 0  9994
2 45465   2.5407 301.2116 0043011  17.1380 187.5168  1.00270479 23042
BEIDOU-3 G3             
1 45807U 20040A   26171.05745054 -.00000359  00000+0  00000+0 0  9993
2 45807   2.4554  67.4599 0002377 337.1315 354.8002  1.00264935 22093
APSTAR-6D               
1 45863U 20045A   26170.27790780 -.00000324  00000+0  00000+0 0  9991
2 45863   0.0465  91.7344 0002393   5.1494  44.7111  1.00271778 21881
KOREASAT 116            
1 45920U 20048A   26171.27226957 -.00000367  00000+0  00000+0 0  9996
2 45920   0.0132 312.1490 0000795 140.9090  29.6273  1.00275455 21676
EXPRESS 103             
1 45985U 20053A   26171.07405993 -.00000286  00000+0  00000+0 0  9990
2 45985   0.0175 318.4028 0000356 358.7774  74.2700  1.00271129 21676
EXPRESS 80              
1 45986U 20053B   26171.03269997  .00000000  00000+0  00000+0 0  9992
2 45986   0.0207 332.5194 0001851 202.3104 185.1721  1.00269836 21651
BSAT-4B                 
1 46112U 20056A   26171.17614287  .00000000  00000+0  00000+0 0  9998
2 46112   0.0106 190.1062 0004199 285.6654 325.8664  1.00268843 21415
MEV-2                   
1 46113U 20056B   26171.24919683 -.00000016  00000+0  00000+0 0  9993
2 46113   0.0167 305.3086 0000089 153.8964 257.9568  1.00270641 80561
GALAXY 30 (G-30)        
1 46114U 20056C   26171.22469549  .00000032  00000+0  00000+0 0  9990
2 46114   0.0184  12.1500 0002276  75.6010 136.5751  1.00273017 21323
GAOFEN-13 01            
1 46610U 20071A   26171.20600396 -.00000368  00000+0  00000+0 0  9996
2 46610   0.5303  84.8353 0041355 123.5874 252.3555  1.00269186 20955
TIANTONG-1 2            
1 46916U 20082A   26171.30158949 -.00000361  00000+0  00000+0 0  9993
2 46916   0.7861 328.0425 0001082 113.1627  60.7756  1.00267989 20685
LUCAS (JDRS-1)          
1 47202U 20089A   26171.12481017 -.00000240  00000+0  00000+0 0  9990
2 47202   0.0502 274.1923 0002336 151.8008 338.0565  1.00269214 20444
SXM-7                   
1 47240U 20096A   26171.22475840 -.00000210  00000+0  00000+0 0  9995
2 47240   0.0318 102.1799 0003830  22.8067 139.2014  1.00269425  7476
CMS-01                  
1 47256U 20099A   26171.05199051 -.00000170  00000+0  00000+0 0  9998
2 47256   0.0127  68.7354 0003421 211.3909  89.8463  1.00272274 20223
TURKSAT 5A              
1 47306U 21001A   26171.25552353  .00000149  00000+0  00000+0 0  9993
2 47306   0.0171  61.0853 0000186 297.9813  32.3204  1.00271694 19990
TIANTONG-1 3            
1 47321U 21003A   26171.12281683 -.00000160  00000+0  00000+0 0  9997
2 47321   1.7533 339.7333 0003258 115.5653 298.7731  1.00270310 19992
TJS-6                   
1 47613U 21010A   26171.21352742  .00000038  00000+0  00000+0 0  9997
2 47613   0.2418 263.9310 0002964 225.6827  34.1495  1.00270299 19832
SBIRS GEO-5 (USA 315)   
1 48618U 21042A   26170.98285671 -.00000275  00000+0  00000+0 0  9991
2 48618   5.0996 329.1597 0001431 120.7289 265.9444  1.00271429 18809
FENGYUN 4B              
1 48808U 21047A   26171.27017027 -.00000335  00000+0  00000+0 0  9995
2 48808   0.1616  77.9487 0005941 276.3982 116.0724  1.00275441 18602
SXM-8                   
1 48838U 21049A   26171.22475840 -.00000211  00000+0  00000+0 0  9999
2 48838   0.0188  21.3140 0005568   6.7354 236.1547  1.00281454 18619
TIANLIAN 1-05           
1 49011U 21063A   26171.25275017  .00000103  00000+0  00000+0 0  9995
2 49011   1.6029  80.6837 0000580 347.0136 308.5582  1.00272191 18108
