OBJECT_NAME,OBJECT_ID,EPOCH,MEAN_MOTION,ECCENTRICITY,INCLINATION,RA_OF_ASC_NODE,ARG_OF_PERICENTER,MEAN_ANOMALY,EPHEMERIS_TYPE,CLASSIFICATION_TYPE,NORAD_CAT_ID,ELEMENT_SET_NO,REV_AT_EPOCH,BSTAR,MEAN_MOTION_DOT,MEAN_MOTION_DDOT
TIBA-1,2019-080A,2026-06-20T04:26:40.447104,1.00272600,.00019833,0.0566,20.3730,79.4675,270.7037,0,U,44800,999,2408,0,.151E-5,0
INMARSAT GX5,2019-080B,2026-06-20T06:02:20.271264,1.00269243,.00021291,0.0356,7.3336,92.5916,270.1427,0,U,44801,999,681,0,.7E-6,0
JCSAT-18 (KACIFIC 1),2019-091A,2026-06-20T03:54:38.678688,1.00270251,.00002986,0.0405,196.2053,121.3970,159.4151,0,U,44868,999,2404,0,-.206E-5,0
ELEKTRO-L 3,2019-095A,2026-06-20T04:38:09.347136,1.00271435,.00009798,0.2662,81.5711,352.9646,339.3637,0,U,44903,999,2373,0,-.101E-5,0
SHIJIAN-20 (SJ-20),2019-097A,2026-06-19T21:11:31.499808,1.00266576,.0014814,4.9264,75.0320,52.9838,142.7662,0,U,44910,999,2372,0,.129E-5,0
TJS-5,2020-002A,2026-06-19T21:04:09.974208,1.00271192,.0007544,0.0095,358.1976,49.6835,283.7542,0,U,44978,999,2373,0,-.348E-5,0
GSAT-30,2020-005A,2026-06-20T01:14:51.980064,1.00273067,.00034384,0.0245,260.9618,177.5621,291.4530,0,U,45026,999,2353,0,-.17E-5,0
EUTELSAT KONNECT,2020-005B,2026-06-20T06:01:12.879264,1.00268380,.00013866,0.0728,95.3527,136.6363,133.9835,0,U,45027,999,2436,0,.44E-6,0
JCSAT-17,2020-013A,2026-06-20T06:38:03.516576,1.00270572,.00026444,5.3920,356.9134,89.6499,57.4510,0,U,45245,999,2326,0,-.324E-5,0
GEO-KOMPSAT-2B,2020-013B,2026-06-20T06:35:41.244288,1.00272382,.00003983,0.0484,200.4302,84.9522,210.2867,0,U,45246,999,2331,0,-.348E-5,0
BEIDOU-3 G2,2020-017A,2026-06-20T02:56:43.885824,1.00271684,.00020786,2.8711,47.4075,33.3317,311.8622,0,U,45344,999,2328,0,-.147E-5,0
AEHF-6 (USA 298),2020-022B,2026-06-20T06:38:25.980576,1.00270479,.00430116,2.5407,301.2116,17.1380,187.5168,0,U,45465,999,2304,0,-.303E-5,0
BEIDOU-3 G3,2020-040A,2026-06-20T01:22:43.726656,1.00264935,.00023773,2.4554,67.4599,337.1315,354.8002,0,U,45807,999,2209,0,-.359E-5,0
APSTAR-6D,2020-045A,2026-06-19T06:40:11.233920,1.00271778,.00023937,0.0465,91.7344,5.1494,44.7111,0,U,45863,999,2188,0,-.324E-5,0
KOREASAT 116,2020-048A,2026-06-20T06:32:04.090848,1.00275455,.00007955,0.0132,312.1490,140.9090,29.6273,0,U,45920,999,2167,0,-.367E-5,0
EXPRESS 103,2020-053A,2026-06-20T01:46:38.777952,1.00271129,.00003569,0.0175,318.4028,358.7774,74.2700,0,U,45985,999,2167,0,-.286E-5,0
EXPRESS 80,2020-053B,2026-06-20T00:47:05.277408,1.00269836,.00018515,0.0207,332.5194,202.3104,185.1721,0,U,45986,999,2165,0,0,0
BSAT-4B,2020-056A,2026-06-20T04:13:38.743968,1.00268843,.00041993,0.0106,190.1062,285.6654,325.8664,0,U,46112,999,2141,0,0,0
MEV-2,2020-056B,2026-06-20T05:58:50.606112,1.00270641,.00000891,0.0167,305.3086,153.8964,257.9568,0,U,46113,999,8056,0,-.16E-6,0
GALAXY 30 (G-30),2020-056C,2026-06-20T05:23:33.690336,1.00273017,.00022767,0.0184,12.1500,75.6010,136.5751,0,U,46114,999,2132,0,.32E-6,0
GAOFEN-13 01,2020-071A,2026-06-20T04:56:38.742144,1.00269186,.00413554,0.5303,84.8353,123.5874,252.3555,0,U,46610,999,2095,0,-.368E-5,0
TIANTONG-1 2,2020-082A,2026-06-20T07:14:17.331936,1.00267989,.00010823,0.7861,328.0425,113.1627,60.7756,0,U,46916,999,2068,0,-.361E-5,0
LUCAS (JDRS-1),2020-089A,2026-06-20T02:59:43.598688,1.00269214,.00023369,0.0502,274.1923,151.8008,338.0565,0,U,47202,999,2044,0,-.24E-5,0
SXM-7,2020-096A,2026-06-20T05:23:39.125760,1.00269425,.00038308,0.0318,102.1799,22.8067,139.2014,0,U,47240,999,747,0,-.21E-5,0
CMS-01,2020-099A,2026-06-20T01:14:51.980064,1.00272274,.0003421,0.0127,68.7354,211.3909,89.8463,0,U,47256,999,2022,0,-.17E-5,0
TURKSAT 5A,2021-001A,2026-06-20T06:07:57.232992,1.00271694,.00001861,0.0171,61.0853,297.9813,32.3204,0,U,47306,999,1999,0,.149E-5,0
TIANTONG-1 3,2021-003A,2026-06-20T02:56:51.374112,1.00270310,.0003258,1.7533,339.7333,115.5653,298.7731,0,U,47321,999,1999,0,-.16E-5,0
TJS-6,2021-010A,2026-06-20T05:07:28.769088,1.00270299,.00029645,0.2418,263.9310,225.6827,34.1495,0,U,47613,999,1983,0,.38E-6,0
SBIRS GEO-5 (USA 315),2021-042A,2026-06-19T23:35:18.819744,1.00271429,.00014313,5.0996,329.1597,120.7289,265.9444,0,U,48618,999,1880,0,-.275E-5,0
FENGYUN 4B,2021-047A,2026-06-20T06:29:02.711328,1.00275441,.00059411,0.1616,77.9487,276.3982,116.0724,0,U,48808,999,1860,0,-.335E-5,0
SXM-8,2021-049A,2026-06-20T05:23:39.125760,1.00281454,.00055684,0.0188,21.3140,6.7354,236.1547,0,U,48838,999,1861,0,-.211E-5,0
TIANLIAN 1-05,2021-063A,2026-06-20T06:03:57.614688,1.00272191,.000058,1.6029,80.6837,347.0136,308.5582,0,U,49011,999,1810,0,.103E-5,0
